H1 CPF  1  HTS 2022  7 13 12  6941 larets           NONE
H2  0304206 5557    27944 2022 07 13  0  0  0 2022 07 18  0  0  0   180 1 1  0 0 0
H5  0.0560 
H9 
10 0 59775  70920.00000  0    -547829.998    6861553.432    1616464.751
10 0 59775  71100.00000  0    -232530.935    6451316.777    2879613.879
10 0 59775  71280.00000  0      77253.543    5798741.778    4037492.117
10 0 59775  71460.00000  0     364237.171    4927896.854    5047778.740
10 0 59775  71640.00000  0     612703.453    3871213.846    5873569.019
10 0 59775  71820.00000  0     809279.455    2668232.659    6484698.969
10 0 59775  72000.00000  0     943583.579    1364093.262    6858818.919
10 0 59775  72180.00000  0    1008721.100       7827.651    6982182.421
10 0 59775  72360.00000  0    1001610.272   -1349479.467    6850135.301
10 0 59775  72540.00000  0     923125.677   -2656606.474    6467302.307
10 0 59775  72720.00000  0     778051.891   -3864131.989    5847456.881
10 0 59775  72900.00000  0     574847.404   -4926323.545    5013066.211
10 0 59775  73080.00000  0     325230.944   -5802907.676    3994527.107
10 0 59775  73260.00000  0      43601.159   -6460668.647    2829101.756
10 0 59775  73440.00000  0    -253691.094   -6874792.831    1559565.178
10 0 59775  73620.00000  0    -549182.322   -7029883.388     232614.951
10 0 59775  73800.00000  0    -825205.995   -6920591.923   -1102900.799
10 0 59775  73980.00000  0   -1064820.606   -6551812.986   -2397856.314
10 0 59775  74160.00000  0   -1252703.790   -5938438.775   -3604721.472
10 0 59775  74340.00000  0   -1375967.759   -5104694.665   -4679354.487
10 0 59775  74520.00000  0   -1424851.702   -4083093.022   -5582630.015
10 0 59775  74700.00000  0   -1393258.036   -2913077.357   -6281836.342
10 0 59775  74880.00000  0   -1279110.991   -1639430.867   -6751804.725
10 0 59775  75060.00000  0   -1084526.628    -310523.004   -6975742.665
10 0 59775  75240.00000  0    -815792.683    1023530.866   -6945763.544
10 0 59775  75420.00000  0    -483158.996    2312733.654   -6663115.854
10 0 59775  75600.00000  0    -100449.188    3509042.113   -6138119.014
10 0 59775  75780.00000  0     315497.106    4568129.380   -5389809.683
10 0 59775  75960.00000  0     745534.963    5451019.495   -4445295.949
10 0 59775  76140.00000  0    1169051.966    6125541.361   -3338830.895
10 0 59775  76320.00000  0    1564903.315    6567543.970   -2110618.257
10 0 59775  76500.00000  0    1912404.560    6761817.340    -805381.365
10 0 59775  76680.00000  0    2192336.268    6702668.302     529263.341
10 0 59775  76860.00000  0    2387907.419    6394111.133    1844562.788
10 0 59775  77040.00000  0    2485627.704    5849663.408    3092435.726
10 0 59775  77220.00000  0    2476045.287    5091757.717    4227258.397
10 0 59775  77400.00000  0    2354310.957    4150796.265    5207555.313
10 0 59775  77580.00000  0    2120535.492    3063888.840    5997518.102
10 0 59775  77760.00000  0    1779930.563    1873354.240    6568288.283
10 0 59775  77940.00000  0    1342730.147     625053.124    6898983.531
10 0 59775  78120.00000  0     823891.602    -633385.367    6977432.515
10 0 59775  78300.00000  0     242589.592   -1854372.723    6800613.161
10 0 59775  78480.00000  0    -378486.532   -2992159.189    6374783.229
10 0 59775  78660.00000  0   -1014009.915   -4004557.624    5715287.552
10 0 59775  78840.00000  0   -1637033.333   -4854528.709    4846048.923
10 0 59775  79020.00000  0   -2220122.174   -5511585.530    3798759.427
10 0 59775  79200.00000  0   -2736562.882   -5952962.569    2611761.087
10 0 59775  79380.00000  0   -3161583.836   -6164474.199    1328642.736
10 0 59775  79560.00000  0   -3473526.688   -6141019.865      -3389.029
10 0 59775  79740.00000  0   -3654907.364   -5886706.917   -1335302.038
10 0 59775  79920.00000  0   -3693308.106   -5414577.088   -2618115.004
10 0 59775  80100.00000  0   -3582050.395   -4745947.049   -3804767.299
10 0 59775  80280.00000  0   -3320611.397   -3909404.047   -4851888.724
10 0 59775  80460.00000  0   -2914768.645   -2939523.874   -5721389.090
10 0 59775  80640.00000  0   -2376476.440   -1875384.887   -6381811.596
10 0 59775  80820.00000  0   -1723485.369    -758953.606   -6809412.054
10 0 59775  81000.00000  0    -978725.958     366585.884   -6988937.756
10 0 59775  81180.00000  0    -169490.238    1458488.281   -6914101.088
10 0 59775  81360.00000  0     673562.105    2476038.583   -6587758.710
10 0 59775  81540.00000  0    1517545.771    3382038.996   -6021799.862
10 0 59775  81720.00000  0    2328611.490    4144151.524   -5236738.727
10 0 59775  81900.00000  0    3073282.788    4736051.001   -4261017.633
10 0 59775  82080.00000  0    3719824.659    5138355.419   -3130032.116
10 0 59775  82260.00000  0    4239592.087    5339292.934   -1884892.668
10 0 59775  82440.00000  0    4608297.673    5335069.461    -570954.777
10 0 59775  82620.00000  0    4807133.830    5129916.026     763833.884
10 0 59775  82800.00000  0    4823687.938    4735803.174    2070703.884
10 0 59775  82980.00000  0    4652604.517    4171841.453    3301873.748
10 0 59775  83160.00000  0    4295958.429    3463390.121    4412330.098
10 0 59775  83340.00000  0    3763314.333    2640919.214    5361489.047
10 0 59775  83520.00000  0    3071477.314    1738689.738    6114677.598
10 0 59775  83700.00000  0    2243943.812     793314.857    6644376.929
10 0 59775  83880.00000  0    1310089.771    -157729.609    6931193.793
10 0 59775  84060.00000  0     304123.462   -1077583.202    6964547.474
10 0 59775  84240.00000  0    -736165.023   -1931425.845    6743055.482
10 0 59775  84420.00000  0   -1770817.043   -2687798.562    6274601.740
10 0 59775  84600.00000  0   -2759230.637   -3319772.139    5576088.638
10 0 59775  84780.00000  0   -3661758.606   -3805932.846    4672885.108
10 0 59775  84960.00000  0   -4441331.743   -4131148.233    3597953.247
10 0 59775  85140.00000  0   -5065022.102   -4287071.657    2390671.309
10 0 59775  85320.00000  0   -5505479.650   -4272364.949    1095393.398
10 0 59775  85500.00000  0   -5742169.820   -4092619.332    -240213.767
10 0 59775  85680.00000  0   -5762339.077   -3759971.406   -1566985.639
10 0 59775  85860.00000  0   -5561650.810   -3292431.924   -2836145.279
10 0 59775  86040.00000  0   -5144451.873   -2712963.178   -4001161.031
10 0 59775  86220.00000  0   -4523667.551   -2048364.599   -5019486.842
10 0 59776      0.00000  0   -3720339.716   -1328029.609   -5854115.311
10 0 59776    180.00000  0   -2762839.748    -582638.715   -6474885.942
10 0 59776    360.00000  0   -1685803.544     157146.863   -6859509.843
10 0 59776    540.00000  0    -528840.748     861931.252   -6994292.952
10 0 59776    720.00000  0     664924.627    1504726.514   -6874557.721
10 0 59776    900.00000  0    1850438.278    2061959.785   -6504772.788
10 0 59776   1080.00000  0    2982388.681    2514319.844   -5898389.693
10 0 59776   1260.00000  0    4016914.444    2847417.060   -5077380.476
10 0 59776   1440.00000  0    4913291.220    3052237.457   -4071492.365
10 0 59776   1620.00000  0    5635546.965    3125377.398   -2917224.720
10 0 59776   1800.00000  0    6153933.449    3069046.190   -1656547.918
10 0 59776   1980.00000  0    6446190.607    2890834.100    -335398.592
10 0 59776   2160.00000  0    6498533.209    2603248.015     997999.367
10 0 59776   2340.00000  0    6306303.832    2223034.817    2294917.806
10 0 59776   2520.00000  0    5874259.083    1770331.104    3507935.516
10 0 59776   2700.00000  0    5216467.455    1267676.966    4592703.047
10 0 59776   2880.00000  0    4355823.393     738946.573    5509576.770
10 0 59776   3060.00000  0    3323212.151     208251.473    6225060.312
10 0 59776   3240.00000  0    2156361.627    -301131.585    6713004.234
10 0 59776   3420.00000  0     898443.178    -767757.612    6955529.499
10 0 59776   3600.00000  0    -403531.700   -1172902.961    6943663.659
10 0 59776   3780.00000  0   -1700465.359   -1501313.905    6677666.213
10 0 59776   3960.00000  0   -2943015.903   -1741786.432    6167039.610
10 0 59776   4140.00000  0   -4083472.590   -1887556.548    5430233.667
10 0 59776   4320.00000  0   -5077618.555   -1936494.954    4494036.262
10 0 59776   4500.00000  0   -5886500.459   -1891092.567    3392641.117
10 0 59776   4680.00000  0   -6478022.808   -1758230.488    2166421.818
10 0 59776   4860.00000  0   -6828299.751   -1548747.463     860450.251
10 0 59776   5040.00000  0   -6922687.744   -1276820.919    -477202.085
10 0 59776   5220.00000  0   -6756428.334    -959188.982   -1797300.089
10 0 59776   5400.00000  0   -6334866.116    -614258.568   -3051329.152
10 0 59776   5580.00000  0   -5673235.415    -261151.509   -4193337.034
10 0 59776   5760.00000  0   -4796030.485      81263.716   -5181650.766
10 0 59776   5940.00000  0   -3736003.120     395302.167   -5980390.286
10 0 59776   6120.00000  0   -2532850.137     665304.688   -6560726.449
10 0 59776   6300.00000  0   -1231665.092     878355.381   -6901849.591
10 0 59776   6480.00000  0     118776.290    1024849.413   -6991640.811
10 0 59776   6660.00000  0    1467831.799    1098893.500   -6827041.393
10 0 59776   6840.00000  0    2764860.113    1098528.656   -6414133.953
10 0 59776   7020.00000  0    3961092.058    1025770.989   -5767922.306
10 0 59776   7200.00000  0    5011440.694     886468.608   -4911817.200
10 0 59776   7380.00000  0    5876200.760     689980.985   -3876841.780
10 0 59776   7560.00000  0    6522577.852     448691.866   -2700560.732
10 0 59776   7740.00000  0    6925981.259     177373.129   -1425759.140
10 0 59776   7920.00000  0    7071019.653    -107573.631     -98902.749
10 0 59776   8100.00000  0    6952137.519    -388961.688    1231563.865
10 0 59776   8280.00000  0    6573859.684    -649709.377    2517011.022
10 0 59776   8460.00000  0    5950622.379    -873729.986    3710436.413
10 0 59776   8640.00000  0    5106195.894   -1046773.470    4768209.357
10 0 59776   8820.00000  0    4072738.247   -1157178.537    5651674.441
99
